STARLINK G              
1 53049U 22077G   22196.58334491 -.01266623  00000+0 -89578-2 0  9992
2 53049  97.6552  14.5280 0001653  94.0730 176.2323 15.76834626   715
STARLINK H              
1 53050U 22077H   22196.58334491 -.01266459  00000+0 -89785-2 0  9991
2 53050  97.6552  14.5274 0001652  93.8571 175.7212 15.76779423  1309
STARLINK J              
1 53051U 22077J   22196.58334491 -.01266453  00000+0 -89341-2 0  9994
2 53051  97.6552  14.5283 0001652  94.7500 176.2678 15.76890780  1304
STARLINK K              
1 53052U 22077K   22196.58334491 -.01266412  00000+0 -89672-2 0  9997
2 53052  97.6552  14.5276 0001649  94.2544 175.6884 15.76806846  1308
STARLINK L              
1 53053U 22077L   22196.58334491 -.01266862  00000+0 -89152-2 0  9990
2 53053  97.6552  14.5287 0001658  98.9595 172.7741 15.76946515  1306
STARLINK M              
1 53054U 22077M   22196.58334491 -.01266661  00000+0 -89467-2 0  9997
2 53054  97.6552  14.5280 0001653  96.1850 174.4729 15.76863279  1309
STARLINK N              
1 53055U 22077N   22196.58334491 -.01266906  00000+0 -88934-2 0  9998
2 53055  97.6552  14.5290 0001677 103.1208 169.3228 15.77002161  1306
STARLINK P              
1 53056U 22077P   22196.58334491 -.01266590  00000+0 -89242-2 0  9991
2 53056  97.6552  14.5284 0001652  92.1226 179.2552 15.76918446  1301
STARLINK Q              
1 53057U 22077Q   22196.58334491 -.01266799  00000+0 -88705-2 0  9996
2 53057  97.6552  14.5294 0001661  99.6778 173.4691 15.77058068  1303
STARLINK R              
1 53058U 22077R   22196.58334491 -.01266715  00000+0 -89033-2 0  9990
2 53058  97.6552  14.5287 0001648  94.3044 177.7899 15.76973670   714
STARLINK S              
1 53059U 22077S   22196.58334491 -.01267007  00000+0 -88500-2 0  9994
2 53059  97.6552  14.5298 0001667  99.7119 174.1355 15.77114069  1304
STARLINK T              
1 53060U 22077T   22196.58334491 -.01266664  00000+0 -88806-2 0  9993
2 53060  97.6552  14.5291 0001649  96.6326 176.1637 15.77029943  1306
STARLINK U              
1 53061U 22077U   22196.58334491 -.01267094  00000+0 -88292-2 0  9991
2 53061  97.6552  14.5301 0001659 101.1299 173.4253 15.77168672  1308
STARLINK V              
1 53062U 22077V   22196.58334491 -.01266927  00000+0 -88604-2 0  9993
2 53062  97.6552  14.5294 0001667 101.3109 172.1861 15.77086127  1306
STARLINK W              
1 53063U 22077W   22196.58334491 -.01266721  00000+0 -88043-2 0  9993
2 53063  97.6552  14.5305 0001640  93.2417 182.0020 15.77224684  1301
STARLINK X              
1 53064U 22077X   22196.58334491 -.01266714  00000+0 -88372-2 0  9991
2 53064  97.6552  14.5298 0001643  94.7498 179.4539 15.77140923  1309
STARLINK Y              
1 53065U 22077Y   22196.58334491 -.01267069  00000+0 -87963-2 0  9991
2 53065  97.6552  14.5307 0001646  95.9628 179.6333 15.77251967  1307
STARLINK Z              
1 53066U 22077Z   22196.58334491 -.01264529  00000+0 -87983-2 0  9992
2 53066  97.6552  14.5302 0001710 144.8025 130.0973 15.77195123  1302
STARLINK AA             
1 53067U 22077AA  22196.58334491 -.01266963  00000+0 -87627-2 0  9992
2 53067  97.6552  14.5312 0001636  91.6711 184.9535 15.77335640  1304
STARLINK AB             
1 53068U 22077AB  22196.58334491 -.01266849  00000+0 -87837-2 0  9999
2 53068  97.6552  14.5307 0001641  97.3138 178.6261 15.77279720  1303
STARLINK AC             
1 53069U 22077AC  22196.58334491 -.01267295  00000+0 -87438-2 0  9993
2 53069  97.6552  14.5315 0001671 105.2587 172.0594 15.77390187  1301
STARLINK AD             
1 53070U 22077AD  22196.58334491 -.01266706  00000+0 -87717-2 0  9991
2 53070  97.6552  14.5308 0001630  92.0553 184.2271 15.77307582  1300
STARLINK AE             
1 53071U 22077AE  22196.58334491 -.01267152  00000+0 -87210-2 0  9996
2 53071  97.6552  14.5318 0001646  97.9406 180.0536 15.77446006  1303
STARLINK AF             
1 53072U 22077AF  22196.58334491 -.01266852  00000+0 -87512-2 0  9998
2 53072  97.6552  14.5312 0001637  95.6682 181.3031 15.77362791  1301
STARLINK AG             
1 53073U 22077AG  22196.58334491 -.01267205  00000+0 -86996-2 0  9997
2 53073  97.6552  14.5322 0001651 101.9814 176.6845 15.77501912  1307
STARLINK AH             
1 53074U 22077AH  22196.58334491 -.01267138  00000+0 -87314-2 0  9998
2 53074  97.6552  14.5315 0001647  97.4440 180.2035 15.77419059  1301
STARLINK AJ             
1 53075U 22077AJ  22196.58334491 -.01267126  00000+0 -86775-2 0  9996
2 53075  97.6552  14.5325 0001641  99.2536 180.0847 15.77557270  1300
STARLINK AK             
1 53076U 22077AK  22196.58334491 -.01267024  00000+0 -87092-2 0  9997
2 53076  97.6552  14.5318 0001644  99.1989 179.1328 15.77473728  1305
STARLINK AL             
1 53077U 22077AL  22196.58334491 -.01267188  00000+0 -86564-2 0  9992
2 53077  97.6552  14.5328 0001646 100.1073 179.8985 15.77612799  1305
STARLINK AM             
1 53078U 22077AM  22196.58334491 -.01266951  00000+0 -86870-2 0  9990
2 53078  97.6552  14.5322 0001630  94.7945 184.2082 15.77529468  1307
STARLINK AN             
1 53079U 22077AN  22196.58334491 -.01267329  00000+0 -86472-2 0  9999
2 53079  97.6552  14.5330 0001656 102.2023 178.1489 15.77639239  1308
STARLINK AP             
1 53080U 22077AP  22196.58334491 -.01266883  00000+0 -86649-2 0  9991
2 53080  97.6552  14.5325 0001625  88.1388 191.5322 15.77585042  1303
STARLINK AQ             
1 53081U 22077AQ  22196.58334491 -.01267558  00000+0 -86271-2 0  9993
2 53081  97.6552  14.5333 0001684 107.8015 173.2062 15.77695392  1302
STARLINK AR             
1 53082U 22077AR  22196.58334491 -.01267440  00000+0 -86373-2 0  9997
2 53082  97.6552  14.5330 0001656 102.2015 178.4817 15.77667009  1307
STARLINK AS             
1 53083U 22077AS  22196.58334491 -.01267081  00000+0 -86031-2 0  9990
2 53083  97.6552  14.5337 0001617  85.7628 195.9208 15.77748767  1306
STARLINK AT             
1 53084U 22077AT  22196.58334491 -.01267471  00000+0 -86160-2 0  9997
2 53084  97.6552  14.5333 0001675 106.4653 174.8777 15.77722467  1302
STARLINK AU             
1 53085U 22077AU  22196.58334491 -.01267286  00000+0 -85829-2 0  9993
2 53085  97.6552  14.5340 0001628  96.9716 185.3585 15.77805118  1301
STARLINK AV             
1 53086U 22077AV  22196.58334491 -.01267383  00000+0 -85944-2 0  9990
2 53086  97.6552  14.5336 0001652 104.0107 177.9976 15.77776926  1304
STARLINK AW             
1 53087U 22077AW  22196.58334491 -.01267745  00000+0 -85654-2 0  9991
2 53087  97.6552  14.5343 0001676 107.1961 175.8005 15.77859162  1305
STARLINK AX             
1 53088U 22077AX  22196.58334491 -.01267270  00000+0 -85722-2 0  9991
2 53088  97.6552  14.5339 0001628  98.6324 184.0255 15.77832587  1306
FALCON 9 DEB            
1 53089U 22077AY  22195.95873365  .00139291  00000+0  54659-3 0  9994
2 53089  97.6734  13.8645 0008566 238.7619 121.2813 15.86521281   626
FALCON 9 DEB            
1 53090U 22077AZ  22195.95786446  .00151563  00000+0  58303-3 0  9995
2 53090  97.6723  13.8649 0007422 218.8168 141.2570 15.86915818   623
FALCON 9 DEB            
1 53091U 22077BA  22196.58549370  .00150494  10306-4  55272-3 0  9998
2 53091  97.6688  14.5743 0012621 219.0694 140.9667 15.88189181   723
FALCON 9 DEB            
1 53092U 22077BB  22195.95455662  .00156726  10991-4  57197-3 0  9991
2 53092  97.6676  13.8657 0012512 206.5509 153.5123 15.88315722   620
TIANLIAN 2-03           
1 53100U 22078A   22194.13372968  .00109935 -28304-6  65800-2 0  9997
2 53100  27.1649 175.2060 7307300 174.7636 353.4062  2.27980749    17
CZ-3B R/B               
1 53101U 22078B   22195.97451363  .00047728  79097-6  12380-2 0  9998
2 53101  27.1306 174.9556 7246839 174.9387 136.5068  2.36910194    55
2022-080A               
1 53105U 22080A   22196.40687405 -.00000007  00000+0  00000+0 0  9996
2 53105  70.1448  76.7191 0005782 286.1557  73.8674  6.38964154   121
2022-080B               
1 53106U 22080B   22196.72691530 -.00000003  00000+0  00000+0 0  9992
2 53106  70.1589  76.6361 0009889 242.5072 160.6440  6.42613432   138
2022-080C               
1 53107U 22080C   22196.31595537 -.00000003  00000+0  00000+0 0  9998
2 53107  70.1247  76.7799 0016951 257.6053 272.3612  6.42318967    14
2022-080D               
1 53108U 22080D   22196.31309310 -.00000003  00000+0  00000+0 0  9991
2 53108  70.1286  76.7757 0020803 272.6022 251.0628  6.42729319    14
2022-080E               
1 53109U 22080E   22196.72404292 -.00000003  00000+0  00000+0 0  9992
2 53109  70.1369  76.4340 0008828 238.1192 158.6771  6.42598867    24
2022-081A               
1 53113U 22081A   22196.97410369 -.00003676  11624-4  00000+0 0  9995
2 53113  51.6498 194.2108 0052932 234.0278 226.0986 16.12593995   159
NOAA 1 [-]              
1 04793U 70106A   22196.47400461 -.00000018  00000+0  16255-3 0  9994
2 04793 101.5552 259.5753 0031123 267.5267 103.9643 12.54006198361108
NOAA 2 (ITOS-D) [-]     
1 06235U 72082A   22196.42468182 -.00000027  00000+0  12044-3 0  9993
2 06235 101.9535 178.8333 0004366  27.0469 127.4621 12.53149231275471
NOAA 3 [-]              
1 06920U 73086A   22196.39699428 -.00000052  00000+0 -46629-4 0  9990
2 06920 102.2085 178.0146 0006021 239.2175 288.1820 12.40347475204251
NOAA 4 [-]              
1 07529U 74089A   22196.40423406 -.00000047  00000+0 -44094-5 0  9992
2 07529 101.9136 176.1238 0009457  51.6134 104.7043 12.53158574180042
NOAA 5 [-]              
1 09057U 76077A   22196.38608409 -.00000047  00000+0 -14539-4 0  9994
2 09057 102.1000 164.0785 0010325  86.3809  82.4733 12.37772201 77196
TIROS N [-]             
1 11060U 78096A   22196.56379624  .00000102  00000+0  69991-4 0  9990
2 11060  98.6339 249.5600 0011645  65.8864 294.3528 14.18398073475595
NOAA 6 [-]              
1 11416U 79057A   22196.73594450  .00000171  00000+0  77673-4 0  9990
2 11416  98.6631 207.6344 0010480 168.9281 191.2136 14.33772524245789
